AQUA                    
1 27424U 02022A   26087.24165564  .00001056  00000+0  22045-3 0  9998
2 27424  98.4205  54.9489 0001105 117.9900 355.0392 14.62018379271448
CZ-4B R/B               
1 27432U 02024C   26087.18203451  .00000041  00000+0  43968-4 0  9991
2 27432  98.8799 140.4924 0049537 331.5731  97.9304 14.14550891231854
MIDORI II (ADEOS-II)    
1 27597U 02056A   26086.86484460  .00000314  00000+0  14110-3 0  9992
2 27597  98.7799  45.4716 0000795  21.2151 338.9063 14.29298391212893
H-2A R/B                
1 27601U 02056E   26087.12134564  .00000294  00000+0  11729-3 0  9995
2 27601  98.3233  46.7887 0071346 106.3607 264.9494 14.33772617216750
CZ-4B R/B               
1 28059U 03049C   26087.22583395  .00000382  00000+0  99101-4 0  9996
2 28059  98.6893  82.8603 0048243 173.7812 186.3993 14.55036470189299
CZ-2C R/B               
1 28222U 04012C   26087.14443345  .00063830  00000+0  60221-3 0  9997
2 28222  97.7185 154.2126 0013293 235.4780 124.5225 15.66741264207162
SL-16 R/B               
1 28353U 04021B   26087.26658849  .00000170  00000+0  11344-3 0  9992
2 28353  71.0007 193.5079 0004940 347.1173  12.9822 14.14594634125468
CZ-4B R/B               
1 28415U 04035C   26087.10007941  .00008380  00000+0  29288-3 0  9997
2 28415  97.3475 121.1233 0030005 262.6530  97.1300 15.29375596182724
CZ-2C R/B               
1 28480U 04046B   26087.27728866  .00000139  00000+0  66263-4 0  9994
2 28480  98.1977   1.1032 0140592  99.8233 261.8856 14.26998576111159
ARIANE 5 R/B            
1 28499U 04049H   26086.95664731  .00000799  00000+0  94696-4 0  9994
2 28499  98.2655 256.1011 0082933 292.2020  67.0410 14.85297732148501
CZ-2D R/B               
1 28738U 05024B   26086.97931677  .00045198  00000+0  52171-3 0  9995
2 28738  97.3587 102.8182 0002595 342.7816  17.3353 15.61793684142631
ALOS (DAICHI)           
1 28931U 06002A   26087.15562813  .00001345  00000+0  23323-3 0  9993
2 28931  98.1247  43.0227 0000854 105.7417 254.3883 14.69864641 76191
